[{"OBJECT_NAME":"PLEIADES 1A","OBJECT_ID":"2011-076F","EPOCH":"2026-03-09T22:28:30.112032","MEAN_MOTION":14.5854003,"ECCENTRICITY":0.00017089,"INCLINATION":98.204,"RA_OF_ASC_NODE":145.3465,"ARG_OF_PERICENTER":88.1046,"MEAN_ANOMALY":20.7914,"EPHEMERIS_TYPE":0,"CLASSIFICATION_TYPE":"U","NORAD_CAT_ID":38012,"ELEMENT_SET_NO":999,"REV_AT_EPOCH":75752,"BSTAR":9.8090711e-5,"MEAN_MOTION_DOT":4.1e-6,"MEAN_MOTION_DDOT":0},{"OBJECT_NAME":"JD 2","OBJECT_ID":"1984-012D","EPOCH":"2026-03-09T22:15:36.882144","MEAN_MOTION":13.7538851,"ECCENTRICITY":0.07532678,"INCLINATION":63.3059,"RA_OF_ASC_NODE":308.0564,"ARG_OF_PERICENTER":126.7288,"MEAN_ANOMALY":240.5384,"EPHEMERIS_TYPE":0,"CLASSIFICATION_TYPE":"U","NORAD_CAT_ID":14729,"ELEMENT_SET_NO":999,"REV_AT_EPOCH":33025,"BSTAR":0.00052355644,"MEAN_MOTION_DOT":4.484e-5,"MEAN_MOTION_DDOT":0}]
